AEROCUBE 6B             
1 40046U 14033AN  26068.42625992  .00007941  00000+0  66368-3 0  9998
2 40046  97.7129 236.1645 0037452 343.2300  16.7681 14.98232474631816
STARLINK-5827           
1 57066U 23088U   26068.09513795 -.00000208  00000+0 -30595-6 0  9995
2 57066  43.0033 110.4145 0001491 275.9436  84.1236 15.02533243149305
